LEMUR-2-ALISIA          
1 62706U 25009DB  26159.74554918  .00008495  00000+0  64134-3 0  9999
2 62706  97.6967 241.9731 0001017 190.3542 169.7662 15.02652059 98893
LEMUR-2-ROUNDTRIPPER    
1 62711U 25009DG  26159.77585948  .00009780  00000+0  71826-3 0  9999
2 62711  97.7242 242.4675 0004446 158.6746 201.4665 15.03652047 76364
LEMUR-2-MYNAMEISJEFF    
1 62712U 25009DH  26159.77432957  .00009364  00000+0  68776-3 0  9999
2 62712  97.7292 242.8418 0002683 186.0931 174.0262 15.03666575 76360
LEMUR-2-LEIA-PHILIP     
1 63246U 25052AN  26159.18156007  .00002208  00000+0  19544-3 0  9993
2 63246  97.6847  51.2835 0002054 249.4491 110.6511 14.97291118 67328
LEMUR-2-LIA-MARTIN      
1 63248U 25052AQ  26159.52343997  .00005617  00000+0  48380-3 0  9996
2 63248  97.6909  52.0814 0002347 171.3588 188.7675 14.97733641 67385
LEMUR-2-DELOITTE-1      
1 63259U 25052BB  26159.49866274  .00004056  00000+0  35254-3 0  9994
2 63259  97.6920  52.3863 0002478 114.7528 245.3952 14.97537849 67398
LEMUR-2-EMERSONROSE     
1 63261U 25052BD  26159.21540691  .00003172  00000+0  26647-3 0  9993
2 63261  97.6905  52.6491 0002472  71.0664 289.0826 14.99020138 67399
LEMUR-2-MARACHE-FRAN    
1 63262U 25052BE  26159.53029342  .00006317  00000+0  51222-3 0  9995
2 63262  97.6948  53.2569 0006165  51.1759 309.0014 15.00011735 67463
LEMUR-2-THEFALCONER     
1 63264U 25052BG  26159.52384770  .00004617  00000+0  40269-3 0  9995
2 63264  97.6878  52.0404 0003564  59.1931 300.9641 14.97334167 67392
LEMUR-2-UNTITLED-SC     
1 63351U 25061A   26159.42746801  .00003501  00000+0  19918-3 0  9996
2 63351  97.5631 134.8535 0017139 298.0705  61.8793 15.13411015 66268
LEMUR-2-ESPERANZA       
1 63352U 25061B   26159.80182534  .00004107  00000+0  23236-3 0  9997
2 63352  97.5639 135.3168 0016709 296.0887  63.8624 15.13509843 66325
LEMUR-2-KREMPEL-BRO2    
1 63353U 25061C   26159.43464445  .00003480  00000+0  19509-3 0  9992
2 63353  97.5685 135.4743 0017536 288.9993  70.9338 15.13939313 66289
LEMUR-2-THERMORAPTOR    
1 63354U 25061D   26159.48325985  .00004221  00000+0  23531-3 0  9997
2 63354  97.5690 135.5966 0017262 287.6914  72.2433 15.14018473 66297
LEMUR-2-NEUROSPICY      
1 63355U 25061E   26159.65384991  .00003984  00000+0  22174-3 0  9996
2 63355  97.5616 135.3992 0015047 291.4446  68.5180 15.14135951 66327
LEMUR-2-TILLINFINITY    
1 63356U 25061F   26158.89968035  .00004285  00000+0  23430-3 0  9990
2 63356  97.5604 134.9339 0016239 280.9054  79.0350 15.14716168 66238
LEMUR-2-LANGER2SPACE    
1 63358U 25061H   26159.82175863  .00004035  00000+0  22397-3 0  9999
2 63358  97.5608 135.5862 0014987 288.8533  71.1073 15.14224528 66351
LEMUR-2-BALTO           
1 63395U 25052BH  26159.51487069  .00005948  00000+0  48285-3 0  9998
2 63395  97.6881  53.2264 0006662  79.6341 280.5634 14.99993156 67466
LEMUR-2-KRISH           
1 64561U 25135AK  26159.78136837  .00005352  00000+0  48066-3 0  9995
2 64561  97.7723 274.7173 0001239 107.6430 252.4927 14.96127898 52661
LEMUR-2-HUBBLE-4        
1 64565U 25135AP  26159.55879876  .00001422  00000+0  14163-3 0  9996
2 64565  97.7690 273.5702 0001600 356.0807   4.0400 14.93174103 52589
LEMUR-2-SEJONG-2        
1 64586U 25135BL  26159.81415022  .00005034  00000+0  44648-3 0  9991
2 64586  97.7685 274.8937 0004512  16.9319 343.2052 14.96637243 52690
LEMUR-2-HUBBLE-5        
1 64840U 25135BT  26159.78616970  .00001894  00000+0  18250-3 0  9995
2 64840  97.7710 274.4148 0005744  21.7594 338.3869 14.94110443 52652
LEMUR-2-KARENDARRELL    
1 64841U 25135BU  26159.31297266  .00006608  00000+0  53582-3 0  9993
2 64841  97.7668 275.5377 0009124 236.7119 123.3231 14.99981807 52681
LEMUR-2-LUCILLE-ROSE    
1 65403U 25135BV  26159.55382994  .00007306  00000+0  59074-3 0  9995
2 65403  97.7768 275.7868 0010636 316.5953  43.4432 15.00045641 47349
LEMUR-2-AFFIE-WAUWIE    
1 66295U 25248C   26158.30799735  .00013749  00000+0  52119-3 0  9998
2 66295  45.3866 168.5000 0008835  20.2835 339.8404 15.26866519 33080
LEMUR-2-DEANANDMAEVE    
1 66678U 25276N   26159.75480582  .00007447  00000+0  35240-3 0  9995
2 66678  97.4209 233.3710 0006469  41.6458 318.5268 15.19629534 29131
LEMUR-2-STAS-GORBUK     
1 66686U 25276W   26159.76739684  .00006100  00000+0  29212-3 0  9992
2 66686  97.4245 233.4390 0005946  41.9173 318.2516 15.19292385 29134
LEMUR-2-TEODOR          
1 66768U 25276DG  26159.76039806  .00006349  00000+0  28971-3 0  9998
2 66768  97.4147 233.6579 0001845 123.1960 236.9453 15.20959604 29163
LEMUR-2-LAILA           
1 66776U 25276DQ  26159.73553500  .00006313  00000+0  28626-3 0  9994
2 66776  97.4173 233.7488 0001650 146.6176 213.5164 15.21180565 29167
LEMUR-2-CELIJO-SB-PK    
1 66781U 25276DW  26159.76431451  .00006472  00000+0  52617-3 0  9996
2 66781  97.5277 230.8175 0008845 152.7094 207.4596 14.99873419 21366
